start=new Date('2022-07-11T00:00:00.000Z').valueOf();
sats=[{"TLE_LINE2":"2 47603  53.0550 287.7404 0001624  70.6732 289.4432 15.06396308 79458","REV_AT_EPOCH":"7945","FILE":"3511231","TIME_SYSTEM":"UTC","COUNTRY_CODE":"US","INCLINATION":"53.0550","ELEMENT_SET_NO":"999","PERIOD":"95.592","SEMIMAJOR_AXIS":"6925.360","CENTER_NAME":"EARTH","REF_FRAME":"TEME","LAUNCH_DATE":"2021-02-04","RCS_SIZE":"LARGE","OBJECT_TYPE":"PAYLOAD","OBJECT_ID":"2021-009BH","MEAN_MOTION":"15.06396308","RA_OF_ASC_NODE":"287.7404","MEAN_ANOMALY":"289.4432","MEAN_ELEMENT_THEORY":"SGP4","GP_ID":"207850457","OBJECT_NAME":"STARLINK-2008","ECCENTRICITY":"0.00016240","PERIAPSIS":"546.100","APOAPSIS":"548.350","MEAN_MOTION_DOT":"-0.00000068","ARG_OF_PERICENTER":"70.6732","EPHEMERIS_TYPE":"0","CLASSIFICATION_TYPE":"U","BSTAR":"0.00001432000000","EPOCH":"2022-07-10T18:42:26.806752","NORAD_CAT_ID":"47603","TLE_LINE1":"1 47603U 21009BH  22191.77947693 -.00000068  00000-0  14320-4 0  9998","DECAY_DATE":null,"MEAN_MOTION_DDOT":"0.0000000000000","SITE":"AFETR"},{"COUNTRY_CODE":"US","INCLINATION":"53.0544","TIME_SYSTEM":"UTC","TLE_LINE2":"2 47604  53.0544 258.6465 0001639  52.1715 307.9422 15.06369264 79252","FILE":"3511318","REV_AT_EPOCH":"7925","LAUNCH_DATE":"2021-02-04","RCS_SIZE":"LARGE","OBJECT_TYPE":"PAYLOAD","OBJECT_ID":"2021-009BJ","CENTER_NAME":"EARTH","PERIOD":"95.594","SEMIMAJOR_AXIS":"6925.443","ELEMENT_SET_NO":"999","REF_FRAME":"TEME","RA_OF_ASC_NODE":"258.6465","MEAN_MOTION":"15.06369264","GP_ID":"207874045","OBJECT_NAME":"STARLINK-2021","MEAN_ELEMENT_THEORY":"SGP4","MEAN_ANOMALY":"307.9422","ECCENTRICITY":"0.00016390","PERIAPSIS":"546.173","MEAN_MOTION_DOT":"-0.00005600","APOAPSIS":"548.443","EPOCH":"2022-07-10T13:49:13.049472","ARG_OF_PERICENTER":"52.1715","EPHEMERIS_TYPE":"0","BSTAR":"-0.00035764000000","CLASSIFICATION_TYPE":"U","MEAN_MOTION_DDOT":"0.0000000000000","SITE":"AFETR","TLE_LINE1":"1 47604U 21009BJ  22191.57584548 -.00005600  00000-0 -35764-3 0  9995","NORAD_CAT_ID":"47604","DECAY_DATE":null},{"OBJECT_ID":"2021-009BL","OBJECT_TYPE":"PAYLOAD","RCS_SIZE":"LARGE","LAUNCH_DATE":"2021-02-04","REF_FRAME":"TEME","PERIOD":"95.593","CENTER_NAME":"EARTH","SEMIMAJOR_AXIS":"6925.399","ELEMENT_SET_NO":"999","COUNTRY_CODE":"US","INCLINATION":"53.0522","TIME_SYSTEM":"UTC","FILE":"3511318","REV_AT_EPOCH":"7925","TLE_LINE2":"2 47606  53.0522 258.6412 0001482  73.1750 286.9401 15.06383516 79259","OBJECT_NAME":"STARLINK-2024","GP_ID":"207874796","MEAN_ANOMALY":"286.9401","MEAN_ELEMENT_THEORY":"SGP4","RA_OF_ASC_NODE":"258.6412","MEAN_MOTION":"15.06383516","MEAN_MOTION_DOT":"0.00011954","APOAPSIS":"548.290","PERIAPSIS":"546.238","ECCENTRICITY":"0.00014820","SITE":"AFETR","MEAN_MOTION_DDOT":"0.0000000000000","DECAY_DATE":null,"TLE_LINE1":"1 47606U 21009BL  22191.57951843  .00011954  00000-0  82043-3 0  9992","NORAD_CAT_ID":"47606","EPOCH":"2022-07-10T13:54:30.392352","BSTAR":"0.00082043000000","CLASSIFICATION_TYPE":"U","EPHEMERIS_TYPE":"0","ARG_OF_PERICENTER":"73.1750"},{"MEAN_MOTION_DDOT":"0.0000000000000","SITE":"AFETR","DECAY_DATE":null,"TLE_LINE1":"1 47607U 21009BM  22191.55742315 -.00004806  00000-0 -30414-3 0  9998","NORAD_CAT_ID":"47607","EPOCH":"2022-07-10T13:22:41.360160","BSTAR":"-0.00030414000000","CLASSIFICATION_TYPE":"U","EPHEMERIS_TYPE":"0","ARG_OF_PERICENTER":"50.1094","MEAN_MOTION_DOT":"-0.00004806","APOAPSIS":"548.636","PERIAPSIS":"545.956","ECCENTRICITY":"0.00019350","OBJECT_NAME":"STARLINK-2025","GP_ID":"207818882","MEAN_ELEMENT_THEORY":"SGP4","MEAN_ANOMALY":"310.0065","RA_OF_ASC_NODE":"258.7394","MEAN_MOTION":"15.06373056","OBJECT_TYPE":"PAYLOAD","OBJECT_ID":"2021-009BM","LAUNCH_DATE":"2021-02-04","RCS_SIZE":"LARGE","REF_FRAME":"TEME","PERIOD":"95.594","SEMIMAJOR_AXIS":"6925.431","CENTER_NAME":"EARTH","ELEMENT_SET_NO":"999","COUNTRY_CODE":"US","INCLINATION":"53.0558","TIME_SYSTEM":"UTC","FILE":"3511121","REV_AT_EPOCH":"7924","TLE_LINE2":"2 47607  53.0558 258.7394 0001935  50.1094 310.0065 15.06373056 79240"},{"OBJECT_NAME":"STARLINK-1528","GP_ID":"207848196","MEAN_ANOMALY":"280.4215","MEAN_ELEMENT_THEORY":"SGP4","RA_OF_ASC_NODE":"318.3547","MEAN_MOTION":"15.06356066","OBJECT_TYPE":"PAYLOAD","OBJECT_ID":"2021-012A","LAUNCH_DATE":"2021-02-16","RCS_SIZE":"LARGE","REF_FRAME":"TEME","PERIOD":"95.595","CENTER_NAME":"EARTH","SEMIMAJOR_AXIS":"6925.483","ELEMENT_SET_NO":"999","INCLINATION":"53.0549","COUNTRY_CODE":"US","TIME_SYSTEM":"UTC","FILE":"3511142","REV_AT_EPOCH":"7779","TLE_LINE2":"2 47620  53.0549 318.3547 0001573  79.6952 280.4215 15.06356066 77792","SITE":"AFETR","MEAN_MOTION_DDOT":"0.0000000000000","DECAY_DATE":null,"TLE_LINE1":"1 47620U 21012A   22191.64034987  .00023411  00000-0  15872-2 0  9997","NORAD_CAT_ID":"47620","EPOCH":"2022-07-10T15:22:06.228768","CLASSIFICATION_TYPE":"U","BSTAR":"0.00158720000000","EPHEMERIS_TYPE":"0","ARG_OF_PERICENTER":"79.6952","MEAN_MOTION_DOT":"0.00023411","APOAPSIS":"548.438","PERIAPSIS":"546.259","ECCENTRICITY":"0.00015730"},{"MEAN_MOTION_DOT":"0.00001145","APOAPSIS":"548.306","ECCENTRICITY":"0.00015610","PERIAPSIS":"546.144","MEAN_MOTION_DDOT":"0.0000000000000","SITE":"AFETR","NORAD_CAT_ID":"47621","TLE_LINE1":"1 47621U 21012B   22191.76566179  .00001145  00000-0  95770-4 0  9991","DECAY_DATE":null,"EPOCH":"2022-07-10T18:22:33.178656","ARG_OF_PERICENTER":"66.2349","EPHEMERIS_TYPE":"0","CLASSIFICATION_TYPE":"U","BSTAR":"0.00009577000000","RCS_SIZE":"LARGE","LAUNCH_DATE":"2021-02-16","OBJECT_ID":"2021-012B","OBJECT_TYPE":"PAYLOAD","ELEMENT_SET_NO":"999","CENTER_NAME":"EARTH","PERIOD":"95.592","SEMIMAJOR_AXIS":"6925.360","REF_FRAME":"TEME","TIME_SYSTEM":"UTC","COUNTRY_CODE":"US","INCLINATION":"53.0549","TLE_LINE2":"2 47621  53.0549 317.7954 0001561  66.2349 293.8804 15.06396308 78333","REV_AT_EPOCH":"7833","FILE":"3511318","GP_ID":"207874797","OBJECT_NAME":"STARLINK-1609","MEAN_ELEMENT_THEORY":"SGP4","MEAN_ANOMALY":"293.8804","MEAN_MOTION":"15.06396308","RA_OF_ASC_NODE":"317.7954"},{"EPOCH":"2022-07-10T19:51:24.585696","BSTAR":"0.00010373000000","CLASSIFICATION_TYPE":"U","EPHEMERIS_TYPE":"0","ARG_OF_PERICENTER":"67.9154","MEAN_MOTION_DDOT":"0.0000000000000","SITE":"AFETR","DECAY_DATE":null,"NORAD_CAT_ID":"47622","TLE_LINE1":"1 47622U 21012C   22191.82736789  .00001264  00000-0  10373-3 0  9992","PERIAPSIS":"546.193","ECCENTRICITY":"0.00014870","MEAN_MOTION_DOT":"0.00001264","APOAPSIS":"548.253","MEAN_MOTION":"15.06396998","RA_OF_ASC_NODE":"317.5122","OBJECT_NAME":"STARLINK-1645","GP_ID":"207874542","MEAN_ANOMALY":"292.1993","MEAN_ELEMENT_THEORY":"SGP4","TIME_SYSTEM":"UTC","COUNTRY_CODE":"US","INCLINATION":"53.0562","REV_AT_EPOCH":"7833","FILE":"3511318","TLE_LINE2":"2 47622  53.0562 317.5122 0001487  67.9154 292.1993 15.06396998 78339","OBJECT_TYPE":"PAYLOAD","OBJECT_ID":"2021-012C","LAUNCH_DATE":"2021-02-16","RCS_SIZE":"LARGE","REF_FRAME":"TEME","ELEMENT_SET_NO":"999","SEMIMAJOR_AXIS":"6925.358","PERIOD":"95.592","CENTER_NAME":"EARTH"},{"RA_OF_ASC_NODE":"254.2610","MEAN_MOTION":"15.06383746","MEAN_ELEMENT_THEORY":"SGP4","MEAN_ANOMALY":"300.1633","OBJECT_NAME":"STARLINK-1655","GP_ID":"207819135","FILE":"3511121","REV_AT_EPOCH":"7919","TLE_LINE2":"2 47623  53.0531 254.2610 0001551  59.9509 300.1633 15.06383746 79195","COUNTRY_CODE":"US","INCLINATION":"53.0531","TIME_SYSTEM":"UTC","REF_FRAME":"TEME","PERIOD":"95.593","SEMIMAJOR_AXIS":"6925.398","CENTER_NAME":"EARTH","ELEMENT_SET_NO":"999","OBJECT_TYPE":"PAYLOAD","OBJECT_ID":"2021-012D","LAUNCH_DATE":"2021-02-16","RCS_SIZE":"LARGE","BSTAR":"0.00008692500000","CLASSIFICATION_TYPE":"U","ARG_OF_PERICENTER":"59.9509","EPHEMERIS_TYPE":"0","EPOCH":"2022-07-10T10:36:07.560288","DECAY_DATE":null,"TLE_LINE1":"1 47623U 21012D   22191.44175417  .00001013  00000-0  86925-4 0  9995","NORAD_CAT_ID":"47623","MEAN_MOTION_DDOT":"0.0000000000000","SITE":"AFETR","PERIAPSIS":"546.189","ECCENTRICITY":"0.00015510","APOAPSIS":"548.338","MEAN_MOTION_DOT":"0.00001013"},{"TIME_SYSTEM":"UTC","COUNTRY_CODE":"US","INCLINATION":"53.0544","REV_AT_EPOCH":"7809","FILE":"3511318","TLE_LINE2":"2 47624  53.0544 297.7990 0001431  76.5824 283.5325 15.06391974 78097","OBJECT_TYPE":"PAYLOAD","OBJECT_ID":"2021-012E","LAUNCH_DATE":"2021-02-16","RCS_SIZE":"LARGE","REF_FRAME":"TEME","ELEMENT_SET_NO":"999","PERIOD":"95.593","CENTER_NAME":"EARTH","SEMIMAJOR_AXIS":"6925.373","MEAN_MOTION":"15.06391974","RA_OF_ASC_NODE":"297.7990","OBJECT_NAME":"STARLINK-1669","GP_ID":"207873546","MEAN_ANOMALY":"283.5325","MEAN_ELEMENT_THEORY":"SGP4","PERIAPSIS":"546.247","ECCENTRICITY":"0.00014310","MEAN_MOTION_DOT":"-0.00002119","APOAPSIS":"548.229","EPOCH":"2022-07-10T18:25:11.384832","BSTAR":"-0.00012344000000","CLASSIFICATION_TYPE":"U","EPHEMERIS_TYPE":"0","ARG_OF_PERICENTER":"76.5824","MEAN_MOTION_DDOT":"0.0000000000000","SITE":"AFETR","DECAY_DATE":null,"NORAD_CAT_ID":"47624","TLE_LINE1":"1 47624U 21012E   22191.76749288 -.00002119  00000-0 -12344-3 0  9997"},{"MEAN_MOTION_DOT":"0.00000242","APOAPSIS":"548.164","ECCENTRICITY":"0.00014000","PERIAPSIS":"546.225","MEAN_MOTION_DDOT":"0.0000000000000","SITE":"AFETR","TLE_LINE1":"1 47625U 21012F   22191.76839657  .00000242  00000-0  35145-4 0  9996","NORAD_CAT_ID":"47625","DECAY_DATE":null,"EPOCH":"2022-07-10T18:26:29.463648","ARG_OF_PERICENTER":"86.2144","EPHEMERIS_TYPE":"0","BSTAR":"0.00003514500000","CLASSIFICATION_TYPE":"U","LAUNCH_DATE":"2021-02-16","RCS_SIZE":"LARGE","OBJECT_ID":"2021-012F","OBJECT_TYPE":"PAYLOAD","SEMIMAJOR_AXIS":"6925.329","PERIOD":"95.592","CENTER_NAME":"EARTH","ELEMENT_SET_NO":"999","REF_FRAME":"TEME","COUNTRY_CODE":"US","INCLINATION":"53.0549","TIME_SYSTEM":"UTC","TLE_LINE2":"2 47625  53.0549 317.7720 0001400  86.2144 273.9005 15.06406340 77817","FILE":"3511318","REV_AT_EPOCH":"7781","GP_ID":"207874298","OBJECT_NAME":"STARLINK-1704","MEAN_ELEMENT_THEORY":"SGP4","MEAN_ANOMALY":"273.9005","RA_OF_ASC_NODE":"317.7720","MEAN_MOTION":"15.06406340"}];
